[{"OBJECT_NAME":"STARLINK-31958","OBJECT_ID":"2024-106C","EPOCH":"2026-03-09T01:20:23.651520","MEAN_MOTION":15.27599767,"ECCENTRICITY":0.00028317,"INCLINATION":43.0014,"RA_OF_ASC_NODE":321.5884,"ARG_OF_PERICENTER":258.5288,"MEAN_ANOMALY":101.5246,"EPHEMERIS_TYPE":0,"CLASSIFICATION_TYPE":"U","NORAD_CAT_ID":59924,"ELEMENT_SET_NO":999,"REV_AT_EPOCH":10059,"BSTAR":4.0548466e-5,"MEAN_MOTION_DOT":8.54e-6,"MEAN_MOTION_DDOT":0},{"OBJECT_NAME":"COSMOS 546","OBJECT_ID":"1973-005A","EPOCH":"2026-03-09T21:40:39.247392","MEAN_MOTION":15.29707303,"ECCENTRICITY":0.00147738,"INCLINATION":50.6327,"RA_OF_ASC_NODE":289.914,"ARG_OF_PERICENTER":261.1516,"MEAN_ANOMALY":98.7778,"EPHEMERIS_TYPE":0,"CLASSIFICATION_TYPE":"U","NORAD_CAT_ID":6350,"ELEMENT_SET_NO":999,"REV_AT_EPOCH":92802,"BSTAR":9.142057e-5,"MEAN_MOTION_DOT":2.316e-5,"MEAN_MOTION_DDOT":0}]
